{"type": "FeatureCollection", "features": [{"type": "Feature", "properties": {"identifier": "05720b3e-ed5f-406b-8f63-e2406b5d82d5", "name": "Sitzungszimmer B", "openstreetmap_id": "node/5415702672"}, "geometry": {"type": "Point", "coordinates": ["9.3479842", "47.4134074"]}}, {"type": "Feature", "properties": {"identifier": "07ccf18b-66ba-4e13-9cc2-2000d7464f14", "name": "Sitzungszimmer A", "image": "https://demopimtsoch.sos-ch-dk-2.exoscale-cdn.com/catalog/9/6/c/8/96c8b6779cd370edeb396cba4ecca6ba9a728130_TSOAG.png", "openstreetmap_id": "node/5415702672"}, "geometry": {"type": "Point", "coordinates": ["9.3479842", "47.4134074"]}}, {"type": "Feature", "properties": {"identifier": "0b3acd75-1387-40de-8dad-9dec9c24dc25", "name": "Sitzungszimmer C", "image": "https://demopimtsoch.sos-ch-dk-2.exoscale-cdn.com/catalog/4/6/1/f/461f8d8a02e1f5adb4b0585cad55eb2b78e80a62_43097227700_a8c9108d9a_o.jpg", "openstreetmap_id": "node/5415702672"}, "geometry": {"type": "Point", "coordinates": ["9.3479842", "47.4134074"]}}, {"type": "Feature", "properties": {"identifier": "11d4b273-0dc0-4fb9-bfbe-de609aae578d", "name": "Felsen Sitzungszimmer", "image": "https://demopimtsoch.sos-ch-dk-2.exoscale-cdn.com/catalog/5/c/3/c/5c3ca9ec04efc63569132f484c41e118e4a77261_Felsen_Sitzungszimmer.png"}}, {"type": "Feature", "properties": {"identifier": "157740f6-4a8f-4198-b127-e9c733353041", "name": "Tagesraum Alpengl\u00fchen", "description": "Der Tagesraum Alpengl\u00fchen ist der perfekte Ort f\u00fcr Ihre n\u00e4chste Veranstaltung. Mit modernster Ausstattung schnellem WLAN und einer flexiblen Bestuhlung bietet der Raum Platz f\u00fcr bis zu 20 Personen. Die zentrale Lage in Z\u00fcrich nur wenige Gehminuten vom Hauptbahnhof entfernt macht es einfach f\u00fcr Ihre G\u00e4ste den Raum zu erreichen. Neben der technischen Ausstattung bietet der Raum auch eine kleine K\u00fcche und eine gem\u00fctliche Lounge-Ecke f\u00fcr entspannte Pausen. Unser Team steht Ihnen jederzeit zur Verf\u00fcgung um sicherzustellen dass Ihre Veranstaltung reibungslos verl\u00e4uft. Ob f\u00fcr Gesch\u00e4ftstreffen Workshops oder private Feiern der Tagesraum Alpengl\u00fchen schafft die ideale Atmosph\u00e4re f\u00fcr produktive und angenehme Stunden.", "image": "https://demopimtsoch.sos-ch-dk-2.exoscale-cdn.com/catalog/9/1/6/3/9163676dd228440ffd539af1b81062f7a7fb884e_moderne_konferenzraum_zuerich_sommer.jpg", "openstreetmap_id": "node/1346888802"}, "geometry": {"type": "Point", "coordinates": ["9.3698138", "47.4232548"]}}, {"type": "Feature", "properties": {"identifier": "424e6cc9-bd03-4390-9a11-c5aa942b7d3e", "name": "Wald Sitzungszimmer", "image": "https://demopimtsoch.sos-ch-dk-2.exoscale-cdn.com/catalog/5/c/b/4/5cb47b018a18ee1b469f0af66a607eeb93f3fc62_Wald_Sitzungszimmer.png"}}, {"type": "Feature", "properties": {"identifier": "61cfbb6b-9295-4cbb-a9eb-62ba9620fbe3", "name": "Fluss Sitzungszimmer", "image": "https://demopimtsoch.sos-ch-dk-2.exoscale-cdn.com/catalog/b/3/b/c/b3bc7c94ade16e0c3726ec9fc5d6d058ef3119a6_Fluss_Sitzungszimmer.png"}}, {"type": "Feature", "properties": {"identifier": "7e03da10-fa82-4a50-bffb-2d54a5d44084", "name": "Turm Sitzungszimmer", "description": "Beschreibung", "image": "https://demopimtsoch.sos-ch-dk-2.exoscale-cdn.com/catalog/0/1/5/e/015ea248ad095029717fb8c1af37a4928858da3b_Designer_9_.jpeg", "openstreetmap_id": "way/28835125"}}, {"type": "Feature", "properties": {"identifier": "821e31a4-5359-4bab-accd-914a6f1fdb4a", "name": "_TEST Meeting Room", "description": "Beschreibung", "image": "https://demopimtsoch.sos-ch-dk-2.exoscale-cdn.com/catalog/b/b/b/7/bbb754bb8c3b431a278b623d5405ac0b2406c6d6_placeholder.png", "openstreetmap_id": "node/5415702672"}}, {"type": "Feature", "properties": {"identifier": "900db9f8-bf39-4e19-bf31-efa00f5c3fea", "name": "Seesteg Sitzungszimmer", "description": "Beschreibung", "image": "https://demopimtsoch.sos-ch-dk-2.exoscale-cdn.com/catalog/c/8/f/2/c8f2de112301fd89925b2dbc9e58f02e3dd8f59f_Designer_11_.jpeg", "openstreetmap_id": "relation/1683867"}, "geometry": {"type": "Point", "coordinates": ["9.505267395198327", "47.5170476"]}}, {"type": "Feature", "properties": {"identifier": "aad6241a-d0e4-45d8-bccc-893a13837b12", "name": "Bergblick Sitzungszimmer", "description": "Beschreibung", "image": "https://demopimtsoch.sos-ch-dk-2.exoscale-cdn.com/catalog/c/c/f/7/ccf77b3038339d6b9f85e05f55e7a47a968d94ac_Designer_10_.jpeg", "openstreetmap_id": "node/445628383"}, "geometry": {"type": "Point", "coordinates": ["9.3754457", "47.4214519"]}}, {"type": "Feature", "properties": {"identifier": "f5e582ce-b7d4-49f4-904f-142117cc40bb", "name": "Meet im Restaurant 123", "description": "<p>Meet und Dine vom Feinsten</p>", "image": "https://demopimtsoch.sos-ch-dk-2.exoscale-cdn.com/catalog/5/2/c/b/52cb0251613a27880a881e97693575e15ac6b66b_metingraum.jpg"}}]}